GLOBALSTAR M084         
1 38040U 11080A   25083.88832706 -.00000067  00000+0  20762-3 0  9998
2 38040  52.0013 305.1124 0000661 110.7423 263.1929 12.62264065612303
GLOBALSTAR M080         
1 38041U 11080B   25083.86213780 -.00000056  00000+0  26754-3 0  9997
2 38041  52.0069 306.7709 0000833 120.2998 253.8295 12.62270513612144
GLOBALSTAR M082         
1 38042U 11080C   25083.90448523 -.00000064  00000+0  22094-3 0  9990
2 38042  52.0063 262.0754 0000911  69.1095  78.6224 12.62264631612856
GLOBALSTAR M092         
1 38043U 11080D   25083.77399884 -.00000075  00000+0  16308-3 0  9994
2 38043  52.0113 352.8432 0000567  78.5261 316.6374 12.62261399611296
GLOBALSTAR M090         
1 38044U 11080E   25084.54140932 -.00000088  00000+0  87418-4 0  9994
2 38044  51.9873 254.0529 0000888  89.0575 313.7317 12.62268578613090
GLOBALSTAR M086         
1 38045U 11080F   25083.87748963 -.00000073  00000+0  16897-3 0  9994
2 38045  51.9885 256.6191 0001649 117.0926  27.6771 12.62268513612919
GLOBALSTAR M097         
1 39072U 13005A   25083.63470575 -.00000101  00000+0  16605-4 0  9999
2 39072  52.0036 171.8193 0000785 107.5090 252.5862 12.62271132560133
GLOBALSTAR M093         
1 39073U 13005B   25083.92465928 -.00000080  00000+0  13100-3 0  9990
2 39073  51.9802 164.3718 0000728 109.0107 251.0839 12.62263185560122
